[
    {
        "Altitude(m)": 607897.6225599407,
        "Argument of Periapsis(deg)": 0.0,
        "Eccentricity": 0.0,
        "Inclination(deg)": 60.0,
        "Latitude(deg)": -14.292979201733555,
        "Longitude(deg)": -178.3812690725249,
        "Mean Anomaly(deg)": -16.363600000000037,
        "RAAN(deg)": 290.0,
        "Satellite Name": "Test1 1297",
        "Satellite Number": 1297,
        "Semi-Major Axis(m)": 6980739.136638005,
        "Time(s)": 0
    },
    {
        "Altitude(m)": 607750.823655366,
        "Argument of Periapsis(deg)": 0.00010418945913296404,
        "Eccentricity": 0.0,
        "Inclination(deg)": 60.0,
        "Latitude(deg)": -13.758821084929552,
        "Longitude(deg)": -178.09419915117707,
        "Mean Anomaly(deg)": -15.743493854538185,
        "RAAN(deg)": 289.99957995086027,
        "Satellite Name": "Test1 1297",
        "Satellite Number": 1297,
        "Semi-Major Axis(m)": 6980739.136638005,
        "Time(s)": 10
    }
]